CCSDS_OMM_VERS = 2.0
CREATION_DATE  = 
ORIGINATOR     = 

OBJECT_NAME    = ISS (ZARYA)
OBJECT_ID      = 1998-067A
CENTER_NAME    = EARTH
REF_FRAME      = TEME
TIME_SYSTEM    = UTC
MEAN_ELEMENT_THEORY = SGP/SGP4

EPOCH          = 2026-02-09T13:37:56.330112
MEAN_MOTION    = 15.48504497
ECCENTRICITY   = .0011129
INCLINATION    = 51.6311
RA_OF_ASC_NODE = 211.3720
ARG_OF_PERICENTER = 80.8535
MEAN_ANOMALY   = 279.3711

EPHEMERIS_TYPE = 0
CLASSIFICATION_TYPE = U
NORAD_CAT_ID   = 25544
ELEMENT_SET_NO = 999
REV_AT_EPOCH   = 55197
BSTAR          = .1754E-3
MEAN_MOTION_DOT = .9074E-4
MEAN_MOTION_DDOT = 0

CCSDS_OMM_VERS = 2.0
CREATION_DATE  = 
ORIGINATOR     = 

OBJECT_NAME    = CSS (TIANHE)
OBJECT_ID      = 2021-035A
CENTER_NAME    = EARTH
REF_FRAME      = TEME
TIME_SYSTEM    = UTC
MEAN_ELEMENT_THEORY = SGP/SGP4

EPOCH          = 2026-02-09T10:04:12.077472
MEAN_MOTION    = 15.59384169
ECCENTRICITY   = .00046973
INCLINATION    = 41.4684
RA_OF_ASC_NODE = 20.0103
ARG_OF_PERICENTER = 39.0740
MEAN_ANOMALY   = 321.0437

EPHEMERIS_TYPE = 0
CLASSIFICATION_TYPE = U
NORAD_CAT_ID   = 48274
ELEMENT_SET_NO = 999
REV_AT_EPOCH   = 27319
BSTAR          = .22931724E-3
MEAN_MOTION_DOT = .18345E-3
MEAN_MOTION_DDOT = 0

CCSDS_OMM_VERS = 2.0
CREATION_DATE  = 
ORIGINATOR     = 

OBJECT_NAME    = ISS (NAUKA)
OBJECT_ID      = 2021-066A
CENTER_NAME    = EARTH
REF_FRAME      = TEME
TIME_SYSTEM    = UTC
MEAN_ELEMENT_THEORY = SGP/SGP4

EPOCH          = 2026-02-09T13:37:56.330112
MEAN_MOTION    = 15.48504497
ECCENTRICITY   = .00111287
INCLINATION    = 51.6311
RA_OF_ASC_NODE = 211.3720
ARG_OF_PERICENTER = 80.8535
MEAN_ANOMALY   = 279.3711

EPHEMERIS_TYPE = 0
CLASSIFICATION_TYPE = U
NORAD_CAT_ID   = 49044
ELEMENT_SET_NO = 999
REV_AT_EPOCH   = 23044
BSTAR          = .17539621E-3
MEAN_MOTION_DOT = .9074E-4
MEAN_MOTION_DDOT = 0

CCSDS_OMM_VERS = 2.0
CREATION_DATE  = 
ORIGINATOR     = 

OBJECT_NAME    = FREGAT DEB
OBJECT_ID      = 2011-037PF
CENTER_NAME    = EARTH
REF_FRAME      = TEME
TIME_SYSTEM    = UTC
MEAN_ELEMENT_THEORY = SGP/SGP4

EPOCH          = 2026-02-08T05:48:03.431232
MEAN_MOTION    = 12.38136467
ECCENTRICITY   = .0930442
INCLINATION    = 51.6576
RA_OF_ASC_NODE = 28.8822
ARG_OF_PERICENTER = 351.7995
MEAN_ANOMALY   = 6.8516

EPHEMERIS_TYPE = 0
CLASSIFICATION_TYPE = U
NORAD_CAT_ID   = 49271
ELEMENT_SET_NO = 999
REV_AT_EPOCH   = 20904
BSTAR          = .72139E-1
MEAN_MOTION_DOT = .43431E-3
MEAN_MOTION_DDOT = 0

CCSDS_OMM_VERS = 2.0
CREATION_DATE  = 
ORIGINATOR     = 

OBJECT_NAME    = CSS (WENTIAN)
OBJECT_ID      = 2022-085A
CENTER_NAME    = EARTH
REF_FRAME      = TEME
TIME_SYSTEM    = UTC
MEAN_ELEMENT_THEORY = SGP/SGP4

EPOCH          = 2026-02-09T10:04:12.077472
MEAN_MOTION    = 15.59384169
ECCENTRICITY   = .00046973
INCLINATION    = 41.4684
RA_OF_ASC_NODE = 20.0103
ARG_OF_PERICENTER = 39.0740
MEAN_ANOMALY   = 321.0437

EPHEMERIS_TYPE = 0
CLASSIFICATION_TYPE = U
NORAD_CAT_ID   = 53239
ELEMENT_SET_NO = 999
REV_AT_EPOCH   = 17384
BSTAR          = .22931724E-3
MEAN_MOTION_DOT = .18345E-3
MEAN_MOTION_DDOT = 0

CCSDS_OMM_VERS = 2.0
CREATION_DATE  = 
ORIGINATOR     = 

OBJECT_NAME    = CSS (MENGTIAN)
OBJECT_ID      = 2022-143A
CENTER_NAME    = EARTH
REF_FRAME      = TEME
TIME_SYSTEM    = UTC
MEAN_ELEMENT_THEORY = SGP/SGP4

EPOCH          = 2026-02-09T10:04:12.077472
MEAN_MOTION    = 15.59384169
ECCENTRICITY   = .00046973
INCLINATION    = 41.4684
RA_OF_ASC_NODE = 20.0103
ARG_OF_PERICENTER = 39.0740
MEAN_ANOMALY   = 321.0437

EPHEMERIS_TYPE = 0
CLASSIFICATION_TYPE = U
NORAD_CAT_ID   = 54216
ELEMENT_SET_NO = 999
REV_AT_EPOCH   = 15864
BSTAR          = .22931724E-3
MEAN_MOTION_DOT = .18345E-3
MEAN_MOTION_DDOT = 0

CCSDS_OMM_VERS = 2.0
CREATION_DATE  = 
ORIGINATOR     = 

OBJECT_NAME    = PROGRESS-MS 31
OBJECT_ID      = 2025-146A
CENTER_NAME    = EARTH
REF_FRAME      = TEME
TIME_SYSTEM    = UTC
MEAN_ELEMENT_THEORY = SGP/SGP4

EPOCH          = 2026-02-09T13:37:56.330112
MEAN_MOTION    = 15.48504497
ECCENTRICITY   = .00111287
INCLINATION    = 51.6311
RA_OF_ASC_NODE = 211.3720
ARG_OF_PERICENTER = 80.8535
MEAN_ANOMALY   = 279.3711

EPHEMERIS_TYPE = 0
CLASSIFICATION_TYPE = U
NORAD_CAT_ID   = 64751
ELEMENT_SET_NO = 999
REV_AT_EPOCH   = 675
BSTAR          = .17539621E-3
MEAN_MOTION_DOT = .9074E-4
MEAN_MOTION_DDOT = 0

CCSDS_OMM_VERS = 2.0
CREATION_DATE  = 
ORIGINATOR     = 

OBJECT_NAME    = TIANZHOU-9
OBJECT_ID      = 2025-149A
CENTER_NAME    = EARTH
REF_FRAME      = TEME
TIME_SYSTEM    = UTC
MEAN_ELEMENT_THEORY = SGP/SGP4

EPOCH          = 2026-02-09T10:04:12.077472
MEAN_MOTION    = 15.59384169
ECCENTRICITY   = .00046973
INCLINATION    = 41.4684
RA_OF_ASC_NODE = 20.0103
ARG_OF_PERICENTER = 39.0740
MEAN_ANOMALY   = 321.0437

EPHEMERIS_TYPE = 0
CLASSIFICATION_TYPE = U
NORAD_CAT_ID   = 64786
ELEMENT_SET_NO = 999
REV_AT_EPOCH   = 25530
BSTAR          = .22931724E-3
MEAN_MOTION_DOT = .18345E-3
MEAN_MOTION_DDOT = 0

CCSDS_OMM_VERS = 2.0
CREATION_DATE  = 
ORIGINATOR     = 

OBJECT_NAME    = DRAGON CRS-33
OBJECT_ID      = 2025-186A
CENTER_NAME    = EARTH
REF_FRAME      = TEME
TIME_SYSTEM    = UTC
MEAN_ELEMENT_THEORY = SGP/SGP4

EPOCH          = 2026-02-09T13:37:56.330112
MEAN_MOTION    = 15.48504497
ECCENTRICITY   = .00111287
INCLINATION    = 51.6311
RA_OF_ASC_NODE = 211.3720
ARG_OF_PERICENTER = 80.8535
MEAN_ANOMALY   = 279.3711

EPHEMERIS_TYPE = 0
CLASSIFICATION_TYPE = U
NORAD_CAT_ID   = 65304
ELEMENT_SET_NO = 999
REV_AT_EPOCH   = 11
BSTAR          = .17539621E-3
MEAN_MOTION_DOT = .9074E-4
MEAN_MOTION_DDOT = 0

CCSDS_OMM_VERS = 2.0
CREATION_DATE  = 
ORIGINATOR     = 

OBJECT_NAME    = PROGRESS-MS 32
OBJECT_ID      = 2025-204A
CENTER_NAME    = EARTH
REF_FRAME      = TEME
TIME_SYSTEM    = UTC
MEAN_ELEMENT_THEORY = SGP/SGP4

EPOCH          = 2026-02-09T13:37:56.330112
MEAN_MOTION    = 15.48504497
ECCENTRICITY   = .00111287
INCLINATION    = 51.6311
RA_OF_ASC_NODE = 211.3720
ARG_OF_PERICENTER = 80.8535
MEAN_ANOMALY   = 279.3711

EPHEMERIS_TYPE = 0
CLASSIFICATION_TYPE = U
NORAD_CAT_ID   = 65586
ELEMENT_SET_NO = 999
REV_AT_EPOCH   = 27
BSTAR          = .17539621E-3
MEAN_MOTION_DOT = .9074E-4
MEAN_MOTION_DDOT = 0

CCSDS_OMM_VERS = 2.0
CREATION_DATE  = 
ORIGINATOR     = 

OBJECT_NAME    = CYGNUS NG-23
OBJECT_ID      = 2025-208A
CENTER_NAME    = EARTH
REF_FRAME      = TEME
TIME_SYSTEM    = UTC
MEAN_ELEMENT_THEORY = SGP/SGP4

EPOCH          = 2026-02-09T13:37:56.330112
MEAN_MOTION    = 15.48504497
ECCENTRICITY   = .00111287
INCLINATION    = 51.6311
RA_OF_ASC_NODE = 211.3720
ARG_OF_PERICENTER = 80.8535
MEAN_ANOMALY   = 279.3711

EPHEMERIS_TYPE = 0
CLASSIFICATION_TYPE = U
NORAD_CAT_ID   = 65616
ELEMENT_SET_NO = 999
REV_AT_EPOCH   = 22
BSTAR          = .17539621E-3
MEAN_MOTION_DOT = .9074E-4
MEAN_MOTION_DDOT = 0

CCSDS_OMM_VERS = 2.0
CREATION_DATE  = 
ORIGINATOR     = 

OBJECT_NAME    = ISS OBJECT XK
OBJECT_ID      = 1998-067XK
CENTER_NAME    = EARTH
REF_FRAME      = TEME
TIME_SYSTEM    = UTC
MEAN_ELEMENT_THEORY = SGP/SGP4

EPOCH          = 2026-02-09T16:01:23.576736
MEAN_MOTION    = 15.85069263
ECCENTRICITY   = .0003964
INCLINATION    = 51.6224
RA_OF_ASC_NODE = 194.7326
ARG_OF_PERICENTER = 285.3750
MEAN_ANOMALY   = 74.6815

EPHEMERIS_TYPE = 0
CLASSIFICATION_TYPE = U
NORAD_CAT_ID   = 65731
ELEMENT_SET_NO = 999
REV_AT_EPOCH   = 2242
BSTAR          = .11084E-2
MEAN_MOTION_DOT = .274972E-2
MEAN_MOTION_DDOT = 0

